[{"OBJECT_NAME":"OBJECT AD","OBJECT_ID":"2023-085AD","EPOCH":"2026-03-09T21:41:29.115744","MEAN_MOTION":15.31779154,"ECCENTRICITY":0.00101154,"INCLINATION":97.4841,"RA_OF_ASC_NODE":180.2223,"ARG_OF_PERICENTER":77.5993,"MEAN_ANOMALY":282.638,"EPHEMERIS_TYPE":0,"CLASSIFICATION_TYPE":"U","NORAD_CAT_ID":57031,"ELEMENT_SET_NO":999,"REV_AT_EPOCH":15156,"BSTAR":0.00068352515,"MEAN_MOTION_DOT":0.00020961,"MEAN_MOTION_DDOT":0},{"OBJECT_NAME":"STARLINK-31985","OBJECT_ID":"2024-111W","EPOCH":"2026-03-09T10:32:05.575488","MEAN_MOTION":15.30193872,"ECCENTRICITY":0.00012086,"INCLINATION":53.1602,"RA_OF_ASC_NODE":76.8895,"ARG_OF_PERICENTER":78.2477,"MEAN_ANOMALY":281.866,"EPHEMERIS_TYPE":0,"CLASSIFICATION_TYPE":"U","NORAD_CAT_ID":60036,"ELEMENT_SET_NO":999,"REV_AT_EPOCH":9893,"BSTAR":1.4578739e-5,"MEAN_MOTION_DOT":7.3e-7,"MEAN_MOTION_DDOT":0}]
